{
  "type": "FeatureCollection",
  "features": [
    {
      "type": "Feature",
      "properties": {
        "norad_id": 55973,
        "name": "TIANMU-1 03",
        "group": "weather",
        "lat": 20.078003272771884,
        "lon": -20.521891521717816,
        "alt_km": 444.34233345593566,
        "timestamp": "2025-12-19T20:42:59.723957+00:00",
        "meta_object_name": "TIANMU-1 03",
        "meta_object_id": "2023-039A",
        "meta_epoch": "2025-12-19T06:00:05.457888",
        "meta_mean_motion": 15.41105682,
        "meta_eccentricity": 0.00041116,
        "meta_inclination": 97.5101,
        "meta_ra_of_asc_node": 156.084,
        "meta_arg_of_pericenter": 42.5762,
        "meta_mean_anomaly": 317.5802,
        "meta_ephemeris_type": 0,
        "meta_classification_type": "U",
        "meta_norad_cat_id": 55973,
        "meta_element_set_no": 999,
        "meta_rev_at_epoch": 15306,
        "meta_bstar": 0.00028272684,
        "meta_mean_motion_dot": 0.00011617,
        "meta_mean_motion_ddot": 0,
        "tle_line1": "1 55973U 23039A   25353.25006317  .00011617  00000+0  28273-3 0  9998",
        "tle_line2": "2 55973  97.5101 156.0840 0004111  42.5762 317.5802 15.41105682153065"
      },
      "geometry": {
        "type": "Point",
        "coordinates": [
          -20.521891521717816,
          20.078003272771884
        ]
      }
    },
    {
      "type": "Feature",
      "properties": {
        "norad_id": 55974,
        "name": "TIANMU-1 04",
        "group": "weather",
        "lat": -75.746227134275,
        "lon": -172.8427598790114,
        "alt_km": 450.35753734743594,
        "timestamp": "2025-12-19T20:42:59.723970+00:00",
        "meta_object_name": "TIANMU-1 04",
        "meta_object_id": "2023-039B",
        "meta_epoch": "2025-12-19T07:01:55.172352",
        "meta_mean_motion": 15.4144785,
        "meta_eccentricity": 0.00047566,
        "meta_inclination": 97.5034,
        "meta_ra_of_asc_node": 155.3165,
        "meta_arg_of_pericenter": 36.3626,
        "meta_mean_anomaly": 323.7943,
        "meta_ephemeris_type": 0,
        "meta_classification_type": "U",
        "meta_norad_cat_id": 55974,
        "meta_element_set_no": 999,
        "meta_rev_at_epoch": 15307,
        "meta_bstar": 0.00028692854,
        "meta_mean_motion_dot": 0.00011928,
        "meta_mean_motion_ddot": 0,
        "tle_line1": "1 55974U 23039B   25353.29299968  .00011928  00000+0  28693-3 0  9990",
        "tle_line2": "2 55974  97.5034 155.3165 0004756  36.3626 323.7943 15.41447850153070"
      },
      "geometry": {
        "type": "Point",
        "coordinates": [
          -172.8427598790114,
          -75.746227134275
        ]
      }
    },
    {
      "type": "Feature",
      "properties": {
        "norad_id": 55975,
        "name": "TIANMU-1 05",
        "group": "weather",
        "lat": -55.042893717967125,
        "lon": 167.26945471238574,
        "alt_km": 451.16532082149206,
        "timestamp": "2025-12-19T20:42:59.723981+00:00",
        "meta_object_name": "TIANMU-1 05",
        "meta_object_id": "2023-039C",
        "meta_epoch": "2025-12-19T06:55:58.194336",
        "meta_mean_motion": 15.41064434,
        "meta_eccentricity": 0.00041796,
        "meta_inclination": 97.5081,
        "meta_ra_of_asc_node": 155.8048,
        "meta_arg_of_pericenter": 60.2987,
        "meta_mean_anomaly": 299.8675,
        "meta_ephemeris_type": 0,
        "meta_classification_type": "U",
        "meta_norad_cat_id": 55975,
        "meta_element_set_no": 999,
        "meta_rev_at_epoch": 15305,
        "meta_bstar": 0.00029029538,
        "meta_mean_motion_dot": 0.00011915,
        "meta_mean_motion_ddot": 0,
        "tle_line1": "1 55975U 23039C   25353.28886799  .00011915  00000+0  29030-3 0  9996",
        "tle_line2": "2 55975  97.5081 155.8048 0004179  60.2987 299.8675 15.41064434153059"
      },
      "geometry": {
        "type": "Point",
        "coordinates": [
          167.26945471238574,
          -55.042893717967125
        ]
      }
    },
    {
      "type": "Feature",
      "properties": {
        "norad_id": 55976,
        "name": "TIANMU-1 06",
        "group": "weather",
        "lat": -82.3441554385696,
        "lon": -124.22625392662145,
        "alt_km": 451.3850423918384,
        "timestamp": "2025-12-19T20:42:59.723991+00:00",
        "meta_object_name": "TIANMU-1 06",
        "meta_object_id": "2023-039D",
        "meta_epoch": "2025-12-19T07:04:44.080896",
        "meta_mean_motion": 15.41499573,
        "meta_eccentricity": 0.00044578,
        "meta_inclination": 97.5092,
        "meta_ra_of_asc_node": 156.2815,
        "meta_arg_of_pericenter": 54.8812,
        "meta_mean_anomaly": 305.2852,
        "meta_ephemeris_type": 0,
        "meta_classification_type": "U",
        "meta_norad_cat_id": 55976,
        "meta_element_set_no": 999,
        "meta_rev_at_epoch": 15307,
        "meta_bstar": 0.00028724611,
        "meta_mean_motion_dot": 0.00011961,
        "meta_mean_motion_ddot": 0,
        "tle_line1": "1 55976U 23039D   25353.29495464  .00011961  00000+0  28725-3 0  9994",
        "tle_line2": "2 55976  97.5092 156.2815 0004457  54.8812 305.2852 15.41499573153071"
      },
      "geometry": {
        "type": "Point",
        "coordinates": [
          -124.22625392662145,
          -82.3441554385696
        ]
      }
    },
    {
      "type": "Feature",
      "properties": {
        "norad_id": 56232,
        "name": "FENGYUN 3G",
        "group": "weather",
        "lat": 4.327667692772946,
        "lon": -165.67430739457853,
        "alt_km": 411.17154234290774,
        "timestamp": "2025-12-19T20:42:59.724001+00:00",
        "meta_object_name": "FENGYUN 3G",
        "meta_object_id": "2023-055A",
        "meta_epoch": "2025-12-19T03:43:02.160768",
        "meta_mean_motion": 15.54016382,
        "meta_eccentricity": 0.00093116,
        "meta_inclination": 49.992,
        "meta_ra_of_asc_node": 194.3407,
        "meta_arg_of_pericenter": 177.5614,
        "meta_mean_anomaly": 182.5401,
        "meta_ephemeris_type": 0,
        "meta_classification_type": "U",
        "meta_norad_cat_id": 56232,
        "meta_element_set_no": 999,
        "meta_rev_at_epoch": 15202,
        "meta_bstar": 0.00037969333,
        "meta_mean_motion_dot": 0.00024711,
        "meta_mean_motion_ddot": 0,
        "tle_line1": "1 56232U 23055A   25353.15488612  .00024711  00000+0  37969-3 0  9997",
        "tle_line2": "2 56232  49.9920 194.3407 0009311 177.5614 182.5401 15.54016382152022"
      },
      "geometry": {
        "type": "Point",
        "coordinates": [
          -165.67430739457853,
          4.327667692772946
        ]
      }
    },
    {
      "type": "Feature",
      "properties": {
        "norad_id": 57166,
        "name": "METEOR-M2 3",
        "group": "weather",
        "lat": 24.529438842844836,
        "lon": 43.30050598035182,
        "alt_km": 809.0347789058478,
        "timestamp": "2025-12-19T20:42:59.724028+00:00",
        "meta_object_name": "METEOR-M2 3",
        "meta_object_id": "2023-091A",
        "meta_epoch": "2025-12-19T07:06:35.618112",
        "meta_mean_motion": 14.24026827,
        "meta_eccentricity": 0.00035269,
        "meta_inclination": 98.637,
        "meta_ra_of_asc_node": 46.7209,
        "meta_arg_of_pericenter": 349.4144,
        "meta_mean_anomaly": 10.696,
        "meta_ephemeris_type": 0,
        "meta_classification_type": "U",
        "meta_norad_cat_id": 57166,
        "meta_element_set_no": 999,
        "meta_rev_at_epoch": 12891,
        "meta_bstar": 2.4762841e-05,
        "meta_mean_motion_dot": 1.3e-07,
        "meta_mean_motion_ddot": 0,
        "tle_line1": "1 57166U 23091A   25353.29624558  .00000013  00000+0  24763-4 0  9998",
        "tle_line2": "2 57166  98.6370  46.7209 0003526 349.4144  10.6960 14.24026827128912"
      },
      "geometry": {
        "type": "Point",
        "coordinates": [
          43.30050598035182,
          24.529438842844836
        ]
      }
    },
    {
      "type": "Feature",
      "properties": {
        "norad_id": 57399,
        "name": "TIANMU-1 07",
        "group": "weather",
        "lat": -3.26782968078504,
        "lon": 43.97497854960022,
        "alt_km": 483.3376456386595,
        "timestamp": "2025-12-19T20:42:59.724040+00:00",
        "meta_object_name": "TIANMU-1 07",
        "meta_object_id": "2023-101A",
        "meta_epoch": "2025-12-19T08:09:31.533120",
        "meta_mean_motion": 15.28161413,
        "meta_eccentricity": 0.00053399,
        "meta_inclination": 97.287,
        "meta_ra_of_asc_node": 43.0446,
        "meta_arg_of_pericenter": 64.9804,
        "meta_mean_anomaly": 295.199,
        "meta_ephemeris_type": 0,
        "meta_classification_type": "U",
        "meta_norad_cat_id": 57399,
        "meta_element_set_no": 999,
        "meta_rev_at_epoch": 13416,
        "meta_bstar": 0.00019975185,
        "meta_mean_motion_dot": 5.412e-05,
        "meta_mean_motion_ddot": 0,
        "tle_line1": "1 57399U 23101A   25353.33994830  .00005412  00000+0  19975-3 0  9992",
        "tle_line2": "2 57399  97.2870  43.0446 0005339  64.9804 295.1990 15.28161413134162"
      },
      "geometry": {
        "type": "Point",
        "coordinates": [
          43.97497854960022,
          -3.26782968078504
        ]
      }
    }
  ]
}